OBJECT_NAME,OBJECT_ID,EPOCH,MEAN_MOTION,ECCENTRICITY,INCLINATION,RA_OF_ASC_NODE,ARG_OF_PERICENTER,MEAN_ANOMALY,EPHEMERIS_TYPE,CLASSIFICATION_TYPE,NORAD_CAT_ID,ELEMENT_SET_NO,REV_AT_EPOCH,BSTAR,MEAN_MOTION_DOT,MEAN_MOTION_DDOT
ONEWEB-0231,2021-045R,2026-06-15T12:37:55.626528,13.15548875,.00018074,87.9005,259.5276,105.8933,254.2397,0,U,48782,999,24412,-.74105701E-4,-.15E-6,0
ONEWEB-0234,2021-045S,2026-06-15T08:03:55.796544,13.15549077,.00027025,87.9011,259.5472,111.3000,248.8420,0,U,48783,999,24423,.27519282E-3,.116E-5,0
ONEWEB-0238,2021-045T,2026-06-15T11:43:21.490752,13.15547196,.00023178,87.9016,259.5113,107.2539,252.8846,0,U,48784,999,24415,.30440646E-3,.127E-5,0
ONEWEB-0240,2021-045U,2026-06-15T12:13:58.054944,13.15547837,.00018694,87.9015,259.5171,110.4437,249.6895,0,U,48785,999,24418,-.3070043E-3,-.103E-5,0
ONEWEB-0246,2021-045V,2026-06-15T12:05:59.560512,13.15549297,.00018703,87.9013,259.5227,98.9309,261.2033,0,U,48786,999,24405,-.10329814E-3,-.26E-6,0
ONEWEB-0210,2021-045W,2026-06-15T13:18:58.883616,13.15550689,.00011368,87.9011,259.5097,88.4147,271.7114,0,U,48787,999,24410,.34893949E-3,.144E-5,0
ONEWEB-0214,2021-045X,2026-06-15T06:13:27.649920,13.15548844,.0001816,87.9014,259.5651,89.8876,270.2463,0,U,48788,999,24403,.37252E-3,.153E-5,0
ONEWEB-0221,2021-045Y,2026-06-15T11:52:18.134112,13.15548451,.00017972,87.9012,259.5272,104.1147,256.0183,0,U,48789,999,24415,.13857998E-3,.65E-6,0
ONEWEB-0213,2021-045Z,2026-06-15T13:25:50.172672,13.15547277,.00016791,87.9010,259.5175,102.3226,257.8093,0,U,48790,999,24422,.45155172E-3,.183E-5,0
ONEWEB-0212,2021-045AA,2026-06-15T12:52:45.581952,13.15550211,.00020154,87.9009,259.5164,101.6379,258.4978,0,U,48791,999,24421,.13439961E-3,.63E-6,0
ONEWEB-0227,2021-045AB,2026-06-15T12:51:37.738944,13.15548796,.00019282,87.9007,259.5173,103.2076,256.9269,0,U,48792,999,24416,.15747946E-4,.19E-6,0
ONEWEB-0226,2021-045AC,2026-06-15T12:42:28.784448,13.15550415,.00017166,87.9006,259.5233,99.3995,260.7330,0,U,48793,999,24413,.11176694E-4,.17E-6,0
ONEWEB-0224,2021-045AD,2026-06-15T11:50:00.154176,13.15547437,.00023286,87.9003,259.5646,122.7888,237.3467,0,U,48794,999,24405,.27364597E-3,.116E-5,0
ONEWEB-0233,2021-045AE,2026-06-15T13:46:11.208576,13.15548717,.00017677,87.9002,259.5561,107.9078,252.2245,0,U,48795,999,24408,.17417881E-3,.78E-6,0
ONEWEB-0190,2021-045AF,2026-06-15T11:38:35.548224,13.15547416,.00013256,87.9005,259.5356,110.1990,249.9283,0,U,48796,999,24414,.50523121E-3,.203E-5,0
ONEWEB-0236,2021-045AG,2026-06-15T12:03:42.816960,13.15548300,.00020952,87.9001,259.5420,101.9455,258.1911,0,U,48797,999,24403,-.11088689E-3,-.29E-6,0
ONEWEB-0248,2021-045AH,2026-06-15T12:21:57.101472,13.15548283,.00017555,87.9011,259.5227,114.0705,246.0609,0,U,48798,999,24419,-.16434935E-3,-.49E-6,0
ONEWEB-0225,2021-045AJ,2026-06-15T12:53:54.824640,13.15548661,.00014345,87.9006,259.5266,109.4262,250.7024,0,U,48799,999,24420,.29528867E-3,.124E-5,0
ONEWEB-0215,2021-045AK,2026-06-15T12:10:31.993536,13.15546273,.00014534,87.9014,259.5149,116.9266,243.2012,0,U,48800,999,24407,-.3632406E-3,-.124E-5,0
ONEWEB-0216,2021-045AL,2026-06-15T12:24:15.072768,13.15548632,.0001963,87.9012,259.5281,98.4411,261.6941,0,U,48801,999,24408,-.25339737E-3,-.83E-6,0
ONEWEB-0239,2021-045AM,2026-06-15T12:31:05.387232,13.15548609,.00016326,87.8999,259.5336,124.6463,235.4822,0,U,48802,999,24412,-.41112573E-3,-.142E-5,0
ONEWEB-0249,2021-060A,2026-06-15T12:47:27.242880,13.16595020,.00020406,87.9098,229.1067,101.6969,258.4391,0,U,48967,999,23939,.83252E-6,.13E-6,0
ONEWEB-0250,2021-060B,2026-06-15T13:43:21.655488,13.25833462,.0002789,87.9097,226.8606,115.3214,244.8211,0,U,48968,999,24000,-.48475403E-4,-.8E-7,0
ONEWEB-0252,2021-060D,2026-06-15T13:31:54.941376,13.16593873,.00019204,87.9101,229.0927,92.2902,267.8449,0,U,48970,999,23944,.5370747E-5,.15E-6,0
ONEWEB-0253,2021-060E,2026-06-15T13:15:57.404736,13.16593808,.00020578,87.9099,229.1004,101.5675,258.5687,0,U,48971,999,23937,.21330786E-3,.94E-6,0
ONEWEB-0254,2021-060F,2026-06-15T13:29:38.317920,13.16594266,.00018912,87.9102,229.0959,106.1764,253.9575,0,U,48972,999,23937,.39454281E-4,.28E-6,0
ONEWEB-0255,2021-060G,2026-06-15T14:24:21.339072,13.16594903,.00018782,87.9096,229.0952,102.0208,258.1133,0,U,48973,999,23945,-.66140453E-4,-.12E-6,0
ONEWEB-0256,2021-060H,2026-06-15T13:12:31.710528,13.16593041,.00020831,87.9095,229.1092,94.8738,265.2630,0,U,48974,999,23941,.24962961E-4,.22E-6,0
ONEWEB-0257,2021-060J,2026-06-15T13:59:16.180224,13.16594428,.00018984,87.9096,229.0898,97.1286,263.0061,0,U,48975,999,23937,-.15996707E-3,-.48E-6,0
ONEWEB-0258,2021-060K,2026-06-15T14:01:33.232224,13.16593945,.00020671,87.9098,229.1015,99.6805,260.4559,0,U,48976,999,23938,-.26732582E-3,-.89E-6,0
ONEWEB-0259,2021-060L,2026-06-15T13:52:26.238144,13.16594390,.0002066,87.9098,229.1020,103.1749,256.9612,0,U,48977,999,23941,-.30561382E-4,.1E-7,0
ONEWEB-0260,2021-060M,2026-06-15T13:39:53.310528,13.16593767,.00020084,87.9095,229.1053,86.6512,273.4849,0,U,48978,999,23939,.24103546E-4,.22E-6,0
ONEWEB-0261,2021-060N,2026-06-15T12:56:32.813088,13.16596316,.00016945,87.9096,229.1114,99.4315,260.7008,0,U,48979,999,23944,.23351254E-3,.102E-5,0
ONEWEB-0262,2021-060P,2026-06-15T14:17:30.791328,13.16594632,.00020614,87.9097,229.0861,106.2149,253.9209,0,U,48980,999,23941,-.16187291E-3,-.49E-6,0
ONEWEB-0263,2021-060Q,2026-06-15T13:13:40.507392,13.16594460,.00017122,87.9099,229.1065,103.2703,256.8619,0,U,48981,999,23937,-.9807888E-5,.9E-7,0
ONEWEB-0264,2021-060R,2026-06-15T14:07:15.472128,13.16594679,.00018693,87.9098,229.1022,94.2511,265.8834,0,U,48982,999,23938,-.32181723E-3,-.11E-5,0
ONEWEB-0266,2021-060T,2026-06-15T12:48:35.824608,13.16594719,.00021347,87.9098,229.1035,98.6861,261.4512,0,U,48984,999,23936,.42531108E-3,.175E-5,0
ONEWEB-0267,2021-060U,2026-06-15T13:04:33.527136,13.16594489,.00018084,87.9100,229.0979,97.8736,262.2600,0,U,48985,999,23937,.19635683E-3,.88E-6,0
ONEWEB-0268,2021-060V,2026-06-15T14:08:22.418304,13.16595789,.00020456,87.9099,229.0987,93.8777,266.2588,0,U,48986,999,23964,-.27761326E-3,-.93E-6,0
ONEWEB-0269,2021-060W,2026-06-15T13:41:02.085792,13.16594573,.00021751,87.9093,229.1050,93.5281,266.6098,0,U,48987,999,23941,-.93311276E-4,-.23E-6,0
ONEWEB-0270,2021-060X,2026-06-15T14:06:06.973344,13.16594249,.0001844,87.9100,229.1010,107.2995,252.8338,0,U,48988,999,23945,-.16907322E-3,-.52E-6,0
ONEWEB-0271,2021-060Y,2026-06-15T13:47:52.611936,13.16594323,.00018135,87.9099,229.0932,100.7687,259.3648,0,U,48989,999,23945,-.10299638E-3,-.27E-6,0
ONEWEB-0272,2021-060Z,2026-06-15T14:19:46.760736,13.16592391,.00018722,87.9097,229.1009,90.9317,269.2028,0,U,48990,999,23940,-.16400854E-3,-.5E-6,0
ONEWEB-0273,2021-060AA,2026-06-15T13:02:16.586592,13.16595437,.00018959,87.9100,229.1105,100.7765,259.3579,0,U,48991,999,23937,.27075596E-3,.116E-5,0
ONEWEB-0274,2021-060AB,2026-06-15T13:38:44.817792,13.16593833,.00019319,87.9092,229.1080,88.5770,271.5582,0,U,48992,999,23941,-.92870354E-4,-.23E-6,0
ONEWEB-0275,2021-060AC,2026-06-15T13:22:48.146016,13.16594285,.000193,87.9099,229.0992,95.9051,264.2300,0,U,48993,999,23934,.10941767E-3,.55E-6,0
ONEWEB-0276,2021-060AD,2026-06-15T14:10:40.281600,13.16594149,.00019772,87.9095,229.0921,93.1366,266.9992,0,U,48994,999,23936,-.15490335E-3,-.46E-6,0
ONEWEB-0277,2021-060AE,2026-06-15T14:28:55.421472,13.16593490,.00019013,87.9090,229.0985,101.4173,258.7171,0,U,48995,999,23935,-.43218585E-4,-.4E-7,0
ONEWEB-0278,2021-060AF,2026-06-15T14:15:12.070080,13.16602655,.00021913,87.9099,229.0906,99.9216,260.2162,0,U,48996,999,23948,-.56630708E-2,-.2152E-4,0
ONEWEB-0279,2021-060AG,2026-06-15T14:26:38.082624,13.16594393,.00017762,87.9097,229.0871,96.9457,263.1876,0,U,48997,999,23941,-.33864371E-4,0,0
ONEWEB-0280,2021-060AH,2026-06-15T05:41:06.353376,13.16593542,.0002094,87.9098,229.1639,107.8350,252.3009,0,U,48998,999,23930,.39798E-3,.165E-5,0
ONEWEB-0281,2021-060AJ,2026-06-15T13:06:50.283648,13.16595062,.00020983,87.9100,229.0975,98.4320,261.7049,0,U,48999,999,23941,.32609306E-3,.138E-5,0
ONEWEB-0282,2021-060AK,2026-06-15T13:50:07.839168,13.16592263,.00019806,87.9097,229.1000,101.3082,258.8271,0,U,49000,999,23939,-.17833885E-3,-.55E-6,0
ONEWEB-0283,2021-060AL,2026-06-15T13:34:11.510400,13.16594265,.00018639,87.9098,229.1016,97.5960,262.5383,0,U,49001,999,23940,-.15341397E-3,-.46E-6,0
ONEWEB-0284,2021-060AM,2026-06-15T13:25:04.861056,13.16593913,.0002229,87.9098,229.0962,105.2598,254.8780,0,U,49002,999,23938,.62617904E-4,.37E-6,0
ONEWEB-0285,2021-075A,2026-06-15T12:51:08.603136,13.12443732,.00017644,87.8946,350.9902,91.9981,268.1349,0,U,49075,999,23499,-.10012807E-2,-.347E-5,0
ONEWEB-0286,2021-075B,2026-06-15T14:15:07.280064,13.12442156,.00019848,87.8935,350.9958,86.5244,273.6111,0,U,49076,999,23435,.42725486E-3,.166E-5,0
ONEWEB-0287,2021-075C,2026-06-15T13:43:40.121760,13.17649487,.00022644,87.9134,6.1874,85.2295,274.9095,0,U,49077,999,23341,.88980257E-4,.47E-6,0
ONEWEB-0288,2021-075D,2026-06-15T13:41:10.149504,13.12444423,.00020302,87.8944,350.9769,92.4341,267.7020,0,U,49078,999,23497,.10588715E-2,.394E-5,0
ONEWEB-0289,2021-075E,2026-06-15T14:39:21.572640,13.17649646,.00018293,87.9138,6.1964,100.6638,259.4699,0,U,49079,999,23399,.10031372E-3,.52E-6,0
ONEWEB-0290,2021-075F,2026-06-15T14:00:41.348160,13.17648905,.00017988,87.9142,6.1736,104.4517,255.6814,0,U,49080,999,23340,.53756902E-4,.34E-6,0
ONEWEB-0291,2021-075G,2026-06-15T13:38:49.085952,13.17648731,.00021714,87.9137,6.1838,94.1648,265.9732,0,U,49081,999,23339,.15399145E-3,.73E-6,0
ONEWEB-0293,2021-075H,2026-06-15T14:15:15.273792,13.17648083,.00018737,87.9132,6.1824,93.0129,267.1217,0,U,49082,999,23342,.13148035E-3,.64E-6,0
ONEWEB-0294,2021-075J,2026-06-15T13:50:55.656384,13.12444781,.0001817,87.8946,350.9792,101.5025,258.6308,0,U,49083,999,23436,.146158E-2,.539E-5,0
ONEWEB-0295,2021-075K,2026-06-15T14:14:02.708160,13.17648055,.00021637,87.9132,6.1867,89.7916,270.3463,0,U,49084,999,23338,.62239316E-4,.37E-6,0
